ELYSIUM STAR 2 & LFF    
1 43760U 18099C   24220.74583589  .00064928  00000+0  21383-2 0  9993
2 43760  97.5120 288.8112 0005917 106.1015 254.0878 15.31226023311118
